[{"OBJECT_NAME":"ONEWEB-0376","OBJECT_ID":"2021-090Z","EPOCH":"2026-03-09T17:11:57.871392","MEAN_MOTION":13.19725499,"ECCENTRICITY":0.00017504,"INCLINATION":87.9237,"RA_OF_ASC_NODE":324.7777,"ARG_OF_PERICENTER":89.8249,"MEAN_ANOMALY":270.3084,"EPHEMERIS_TYPE":0,"CLASSIFICATION_TYPE":"U","NORAD_CAT_ID":49302,"ELEMENT_SET_NO":999,"REV_AT_EPOCH":21333,"BSTAR":-0.00038829675,"MEAN_MOTION_DOT":-1.43e-6,"MEAN_MOTION_DDOT":0},{"OBJECT_NAME":"THORAD DELTA 1 DEB","OBJECT_ID":"1974-089CG","EPOCH":"2026-03-09T10:42:39.894048","MEAN_MOTION":13.07534601,"ECCENTRICITY":0.00829925,"INCLINATION":100.3424,"RA_OF_ASC_NODE":25.5172,"ARG_OF_PERICENTER":58.3377,"MEAN_ANOMALY":67.5283,"EPHEMERIS_TYPE":0,"CLASSIFICATION_TYPE":"U","NORAD_CAT_ID":8404,"ELEMENT_SET_NO":999,"REV_AT_EPOCH":38429,"BSTAR":0.01240659,"MEAN_MOTION_DOT":4.19e-5,"MEAN_MOTION_DDOT":0}]
